[{"OBJECT_NAME":"TEVEL2-1","OBJECT_ID":"2025-052H","EPOCH":"2026-03-09T15:32:51.927072","MEAN_MOTION":15.30341923,"ECCENTRICITY":0.0004767,"INCLINATION":97.3991,"RA_OF_ASC_NODE":324.7682,"ARG_OF_PERICENTER":104.8919,"MEAN_ANOMALY":255.2849,"EPHEMERIS_TYPE":0,"CLASSIFICATION_TYPE":"U","NORAD_CAT_ID":63217,"ELEMENT_SET_NO":999,"REV_AT_EPOCH":5485,"BSTAR":0.000706,"MEAN_MOTION_DOT":0.00020683,"MEAN_MOTION_DDOT":0},{"OBJECT_NAME":"STARLINK-36451","OBJECT_ID":"2026-003F","EPOCH":"2026-03-08T12:26:34.874880","MEAN_MOTION":15.27586134,"ECCENTRICITY":0.00014946,"INCLINATION":43.001,"RA_OF_ASC_NODE":233.7783,"ARG_OF_PERICENTER":268.3388,"MEAN_ANOMALY":91.7293,"EPHEMERIS_TYPE":0,"CLASSIFICATION_TYPE":"U","NORAD_CAT_ID":67339,"ELEMENT_SET_NO":999,"REV_AT_EPOCH":864,"BSTAR":0.001116091,"MEAN_MOTION_DOT":0.00030584,"MEAN_MOTION_DDOT":0}]
